TLE2=2 31793  70.9756 145.8986 0002430 276.9027 147.4384 14.14840797967156
TLE2=2 33504  82.4273 262.7861 0011818 108.8270 251.4261 15.43631157947681
TLE2=2 29228  69.9338 205.7779 0000719 117.7974 242.3265 15.12824263 89356
TLE2=2 28932  98.2443 229.2443 0052219 198.2620 161.6738 15.16682188 96327
TLE2=2 39358  74.9733 161.2192 0015290  79.8128 280.4784 14.92395264673382
TLE2=2 37731  97.8567  38.1823 0051396 311.0065  58.9699 14.81265842791947
TLE2=2 31598  97.8880 272.3685 0001236  87.3249 272.8114 14.96627894 16789
TLE2=2 31114  98.3990 193.9152 0057876 257.3269 102.1434 14.20250587981509
TLE2=2 31792  70.9441 177.0721 0009579 264.2709  95.7320 14.12947767965862
TLE2=2 38341  98.4751  49.2238 0042988 271.9953  87.6342 14.95249809750081
TLE2=2 29507  97.5564 125.9512 0032157 222.4797 137.3948 15.17022615 61920
TLE2=2 39679  51.6053 277.6994 0096501 147.4633 213.2348 15.39567637658159
